STARLINK-36040          
1 66614U 25270AC  25339.25002315 -.01895517  00000+0 -14809-1 0  9999
2 66614  42.9989 236.9840 0001442 280.0135 186.7594 15.74058750  3036
STARLINK-35988          
1 66615U 25270AD  25339.25002315 -.01889235  00000+0 -14755-1 0  9990
2 66615  42.9989 236.9883 0001506 275.9040 188.9528 15.74054195  3033
STARLINK-35391          
1 66616U 25270AE  25339.25002315 -.01889441  00000+0 -14757-1 0  9992
2 66616  42.9989 236.9792 0001544 281.2321 187.4607 15.74053516  3305
STARLINK-35940          
1 66617U 25271A   25338.81158213  .00679795  00000+0  31967-2 0  9993
2 66617  53.1571 226.1131 0003280 234.7187 125.3529 15.80789565  2969
STARLINK-35970          
1 66618U 25271B   25339.17995268 -.00361646  00000+0 -23737-2 0  9994
2 66618  53.1554 224.1366 0000533 145.1653 214.9403 15.76026159  3022
STARLINK-35951          
1 66619U 25271C   25338.93659155 -.00547317  00000+0 -31095-2 0  9997
2 66619  53.1563 225.4695 0000139  34.7805 325.3226 15.79727935  2983
STARLINK-35936          
1 66620U 25271D   25339.19090857 -.00505786  00000+0 -29583-2 0  9999
2 66620  53.1557 224.2119 0000435 299.2433  60.8545 15.78982878  3029
STARLINK-35847          
1 66621U 25271E   25338.22863889 -.00726477  00000+0 -41389-2 0  9996
2 66621  53.1563 228.8686 0000830 162.0892 198.0160 15.80119551  2873
STARLINK-35950          
1 66622U 25271F   25339.18902225 -.00720349  00000+0 -43392-2 0  9999
2 66622  53.1561 224.1992 0000815  24.5473 335.5588 15.78888049  3023
STARLINK-35920          
1 66623U 25271G   25338.42946626 -.00317341  00000+0 -16180-2 0  9998
2 66623  53.1567 227.9949 0001420   2.2541 357.8488 15.81474448  2905
STARLINK-35927          
1 66624U 25271H   25339.18865114 -.00786598  00000+0 -47492-2 0  9999
2 66624  53.1562 224.1974 0002233 213.0800 147.0082 15.78996813  3025
STARLINK-35929          
1 66625U 25271J   25338.80849065 -.00427227  00000+0 -23514-2 0  9995
2 66625  53.1566 226.0920 0002549 320.0589  40.0246 15.80096982  2962
