CCSDS_OMM_VERS = 2.0
CREATION_DATE  = 
ORIGINATOR     = 

OBJECT_NAME    = STARLINK-36040
OBJECT_ID      = 2025-270AC
CENTER_NAME    = EARTH
REF_FRAME      = TEME
TIME_SYSTEM    = UTC
MEAN_ELEMENT_THEORY = SGP/SGP4

EPOCH          = 2025-12-05T06:00:02.000160
MEAN_MOTION    = 15.74058750
ECCENTRICITY   = .0001442
INCLINATION    = 42.9989
RA_OF_ASC_NODE = 236.9840
ARG_OF_PERICENTER = 280.0135
MEAN_ANOMALY   = 186.7594

EPHEMERIS_TYPE = 0
CLASSIFICATION_TYPE = U
NORAD_CAT_ID   = 66614
ELEMENT_SET_NO = 999
REV_AT_EPOCH   = 303
BSTAR          = -.14809428E-1
MEAN_MOTION_DOT = -.1895517E-1
MEAN_MOTION_DDOT = 0

CCSDS_OMM_VERS = 2.0
CREATION_DATE  = 
ORIGINATOR     = 

OBJECT_NAME    = STARLINK-35988
OBJECT_ID      = 2025-270AD
CENTER_NAME    = EARTH
REF_FRAME      = TEME
TIME_SYSTEM    = UTC
MEAN_ELEMENT_THEORY = SGP/SGP4

EPOCH          = 2025-12-05T06:00:02.000160
MEAN_MOTION    = 15.74054195
ECCENTRICITY   = .0001506
INCLINATION    = 42.9989
RA_OF_ASC_NODE = 236.9883
ARG_OF_PERICENTER = 275.9040
MEAN_ANOMALY   = 188.9528

EPHEMERIS_TYPE = 0
CLASSIFICATION_TYPE = U
NORAD_CAT_ID   = 66615
ELEMENT_SET_NO = 999
REV_AT_EPOCH   = 303
BSTAR          = -.14755149E-1
MEAN_MOTION_DOT = -.1889235E-1
MEAN_MOTION_DDOT = 0

CCSDS_OMM_VERS = 2.0
CREATION_DATE  = 
ORIGINATOR     = 

OBJECT_NAME    = STARLINK-35391
OBJECT_ID      = 2025-270AE
CENTER_NAME    = EARTH
REF_FRAME      = TEME
TIME_SYSTEM    = UTC
MEAN_ELEMENT_THEORY = SGP/SGP4

EPOCH          = 2025-12-05T06:00:02.000160
MEAN_MOTION    = 15.74053516
ECCENTRICITY   = .00015441
INCLINATION    = 42.9989
RA_OF_ASC_NODE = 236.9792
ARG_OF_PERICENTER = 281.2321
MEAN_ANOMALY   = 187.4607

EPHEMERIS_TYPE = 0
CLASSIFICATION_TYPE = U
NORAD_CAT_ID   = 66616
ELEMENT_SET_NO = 999
REV_AT_EPOCH   = 330
BSTAR          = -.14757137E-1
MEAN_MOTION_DOT = -.1889441E-1
MEAN_MOTION_DDOT = 0

CCSDS_OMM_VERS = 2.0
CREATION_DATE  = 
ORIGINATOR     = 

OBJECT_NAME    = STARLINK-35940
OBJECT_ID      = 2025-271A
CENTER_NAME    = EARTH
REF_FRAME      = TEME
TIME_SYSTEM    = UTC
MEAN_ELEMENT_THEORY = SGP/SGP4

EPOCH          = 2025-12-04T19:28:40.696032
MEAN_MOTION    = 15.80789565
ECCENTRICITY   = .00032802
INCLINATION    = 53.1571
RA_OF_ASC_NODE = 226.1131
ARG_OF_PERICENTER = 234.7187
MEAN_ANOMALY   = 125.3529

EPHEMERIS_TYPE = 0
CLASSIFICATION_TYPE = U
NORAD_CAT_ID   = 66617
ELEMENT_SET_NO = 999
REV_AT_EPOCH   = 296
BSTAR          = .31967141E-2
MEAN_MOTION_DOT = .679795E-2
MEAN_MOTION_DDOT = 0

CCSDS_OMM_VERS = 2.0
CREATION_DATE  = 
ORIGINATOR     = 

OBJECT_NAME    = STARLINK-35970
OBJECT_ID      = 2025-271B
CENTER_NAME    = EARTH
REF_FRAME      = TEME
TIME_SYSTEM    = UTC
MEAN_ELEMENT_THEORY = SGP/SGP4

EPOCH          = 2025-12-05T04:19:07.911552
MEAN_MOTION    = 15.76026159
ECCENTRICITY   = .00005335
INCLINATION    = 53.1554
RA_OF_ASC_NODE = 224.1366
ARG_OF_PERICENTER = 145.1653
MEAN_ANOMALY   = 214.9403

EPHEMERIS_TYPE = 0
CLASSIFICATION_TYPE = U
NORAD_CAT_ID   = 66618
ELEMENT_SET_NO = 999
REV_AT_EPOCH   = 302
BSTAR          = -.23737448E-2
MEAN_MOTION_DOT = -.361646E-2
MEAN_MOTION_DDOT = 0

CCSDS_OMM_VERS = 2.0
CREATION_DATE  = 
ORIGINATOR     = 

OBJECT_NAME    = STARLINK-35951
OBJECT_ID      = 2025-271C
CENTER_NAME    = EARTH
REF_FRAME      = TEME
TIME_SYSTEM    = UTC
MEAN_ELEMENT_THEORY = SGP/SGP4

EPOCH          = 2025-12-04T22:28:41.509920
MEAN_MOTION    = 15.79727935
ECCENTRICITY   = .0000139
INCLINATION    = 53.1563
RA_OF_ASC_NODE = 225.4695
ARG_OF_PERICENTER = 34.7805
MEAN_ANOMALY   = 325.3226

EPHEMERIS_TYPE = 0
CLASSIFICATION_TYPE = U
NORAD_CAT_ID   = 66619
ELEMENT_SET_NO = 999
REV_AT_EPOCH   = 298
BSTAR          = -.31095E-2
MEAN_MOTION_DOT = -.547317E-2
MEAN_MOTION_DDOT = 0

CCSDS_OMM_VERS = 2.0
CREATION_DATE  = 
ORIGINATOR     = 

OBJECT_NAME    = STARLINK-35936
OBJECT_ID      = 2025-271D
CENTER_NAME    = EARTH
REF_FRAME      = TEME
TIME_SYSTEM    = UTC
MEAN_ELEMENT_THEORY = SGP/SGP4

EPOCH          = 2025-12-05T04:34:54.500448
MEAN_MOTION    = 15.78982878
ECCENTRICITY   = .00004359
INCLINATION    = 53.1557
RA_OF_ASC_NODE = 224.2119
ARG_OF_PERICENTER = 299.2433
MEAN_ANOMALY   = 60.8545

EPHEMERIS_TYPE = 0
CLASSIFICATION_TYPE = U
NORAD_CAT_ID   = 66620
ELEMENT_SET_NO = 999
REV_AT_EPOCH   = 302
BSTAR          = -.29583165E-2
MEAN_MOTION_DOT = -.505786E-2
MEAN_MOTION_DDOT = 0

CCSDS_OMM_VERS = 2.0
CREATION_DATE  = 
ORIGINATOR     = 

OBJECT_NAME    = STARLINK-35847
OBJECT_ID      = 2025-271E
CENTER_NAME    = EARTH
REF_FRAME      = TEME
TIME_SYSTEM    = UTC
MEAN_ELEMENT_THEORY = SGP/SGP4

EPOCH          = 2025-12-04T05:29:14.400096
MEAN_MOTION    = 15.80119551
ECCENTRICITY   = .000083
INCLINATION    = 53.1563
RA_OF_ASC_NODE = 228.8686
ARG_OF_PERICENTER = 162.0892
MEAN_ANOMALY   = 198.0160

EPHEMERIS_TYPE = 0
CLASSIFICATION_TYPE = U
NORAD_CAT_ID   = 66621
ELEMENT_SET_NO = 999
REV_AT_EPOCH   = 287
BSTAR          = -.41389E-2
MEAN_MOTION_DOT = -.726477E-2
MEAN_MOTION_DDOT = 0

CCSDS_OMM_VERS = 2.0
CREATION_DATE  = 
ORIGINATOR     = 

OBJECT_NAME    = STARLINK-35950
OBJECT_ID      = 2025-271F
CENTER_NAME    = EARTH
REF_FRAME      = TEME
TIME_SYSTEM    = UTC
MEAN_ELEMENT_THEORY = SGP/SGP4

EPOCH          = 2025-12-05T04:32:11.522400
MEAN_MOTION    = 15.78888049
ECCENTRICITY   = .00008156
INCLINATION    = 53.1561
RA_OF_ASC_NODE = 224.1992
ARG_OF_PERICENTER = 24.5473
MEAN_ANOMALY   = 335.5588

EPHEMERIS_TYPE = 0
CLASSIFICATION_TYPE = U
NORAD_CAT_ID   = 66622
ELEMENT_SET_NO = 999
REV_AT_EPOCH   = 302
BSTAR          = -.43392119E-2
MEAN_MOTION_DOT = -.720349E-2
MEAN_MOTION_DDOT = 0

CCSDS_OMM_VERS = 2.0
CREATION_DATE  = 
ORIGINATOR     = 

OBJECT_NAME    = STARLINK-35920
OBJECT_ID      = 2025-271G
CENTER_NAME    = EARTH
REF_FRAME      = TEME
TIME_SYSTEM    = UTC
MEAN_ELEMENT_THEORY = SGP/SGP4

EPOCH          = 2025-12-04T10:18:25.884864
MEAN_MOTION    = 15.81474448
ECCENTRICITY   = .000142
INCLINATION    = 53.1567
RA_OF_ASC_NODE = 227.9949
ARG_OF_PERICENTER = 2.2541
MEAN_ANOMALY   = 357.8488

EPHEMERIS_TYPE = 0
CLASSIFICATION_TYPE = U
NORAD_CAT_ID   = 66623
ELEMENT_SET_NO = 999
REV_AT_EPOCH   = 290
BSTAR          = -.1618E-2
MEAN_MOTION_DOT = -.317341E-2
MEAN_MOTION_DDOT = 0

CCSDS_OMM_VERS = 2.0
CREATION_DATE  = 
ORIGINATOR     = 

OBJECT_NAME    = STARLINK-35927
OBJECT_ID      = 2025-271H
CENTER_NAME    = EARTH
REF_FRAME      = TEME
TIME_SYSTEM    = UTC
MEAN_ELEMENT_THEORY = SGP/SGP4

EPOCH          = 2025-12-05T04:31:39.458496
MEAN_MOTION    = 15.78996813
ECCENTRICITY   = .00022332
INCLINATION    = 53.1562
RA_OF_ASC_NODE = 224.1974
ARG_OF_PERICENTER = 213.0800
MEAN_ANOMALY   = 147.0082

EPHEMERIS_TYPE = 0
CLASSIFICATION_TYPE = U
NORAD_CAT_ID   = 66624
ELEMENT_SET_NO = 999
REV_AT_EPOCH   = 302
BSTAR          = -.47492104E-2
MEAN_MOTION_DOT = -.786598E-2
MEAN_MOTION_DDOT = 0

CCSDS_OMM_VERS = 2.0
CREATION_DATE  = 
ORIGINATOR     = 

OBJECT_NAME    = STARLINK-35929
OBJECT_ID      = 2025-271J
CENTER_NAME    = EARTH
REF_FRAME      = TEME
TIME_SYSTEM    = UTC
MEAN_ELEMENT_THEORY = SGP/SGP4

EPOCH          = 2025-12-04T19:24:13.592160
MEAN_MOTION    = 15.80096982
ECCENTRICITY   = .00025493
INCLINATION    = 53.1566
RA_OF_ASC_NODE = 226.0920
ARG_OF_PERICENTER = 320.0589
MEAN_ANOMALY   = 40.0246

EPHEMERIS_TYPE = 0
CLASSIFICATION_TYPE = U
NORAD_CAT_ID   = 66625
ELEMENT_SET_NO = 999
REV_AT_EPOCH   = 296
BSTAR          = -.23514157E-2
MEAN_MOTION_DOT = -.427227E-2
MEAN_MOTION_DDOT = 0

